NORAD_CAT_ID,OBJECT_NAME,OBJECT_TYPE,EPOCH,MEAN_MOTION,ECCENTRICITY,INCLINATION,RA_OF_ASC_NODE,ARG_OF_PERICENTER,MEAN_ANOMALY,BSTAR,MEAN_MOTION_DOT,MEAN_MOTION_DDOT,TLE_LINE0,TLE_LINE1,TLE_LINE2,SEMIMAJOR_AXIS,PERIOD,APOGEE,PERIGEE,DECAYED
52138.0,STARLINK-3723,PAYLOAD,2023-03-09 22:00:41,15.08856697,0.000129,53.2141,308.2405,79.637,280.4768,0.0011046,0.00017343,0.0,0 STARLINK-3723,1 52138U 22029BC  23068.91714519  .00017343  00000-0  11046-2 0  9992,2 52138  53.2141 308.2405 0001290  79.6370 280.4768 15.08856697 55519,6917.829,95.436,540.587,538.802,0.0
52138.0,STARLINK-3723,PAYLOAD,2023-03-10 02:46:50,15.08891604,0.0001295,53.2137,307.3483,75.9405,284.1731,0.0033272,0.00053139,0.0,0 STARLINK-3723,1 52138U 22029BC  23069.11586026  .00053139  00000-0  33272-2 0  9993,2 52138  53.2137 307.3483 0001295  75.9405 284.1731 15.08891604 55544,6917.723,95.434,540.484,538.692,0.0
52138.0,STARLINK-3723,PAYLOAD,2023-03-10 09:08:23,15.08830717,0.0001589,53.2137,306.1572,101.8078,258.3093,-0.0004924,-8.114e-05,0.0,0 STARLINK-3723,1 52138U 22029BC  23069.38082504 -.00008114  00000-0 -49240-3 0  9992,2 52138  53.2137 306.1572 0001589 101.8078 258.3093 15.08830717 55587,6917.909,95.438,540.873,538.675,0.0
52138.0,STARLINK-3723,PAYLOAD,2023-03-10 18:40:42,15.08839921,0.0001258,53.2137,304.3738,96.8039,263.3096,0.0010304,0.00016149,0.0,0 STARLINK-3723,1 52138U 22029BC  23069.77826785  .00016149  00000-0  10304-2 0  9995,2 52138  53.2137 304.3738 0001258  96.8039 263.3096 15.08839921 55646,6917.881,95.438,540.616,538.875,0.0
52138.0,STARLINK-3723,PAYLOAD,2023-03-10 21:51:28,15.08837106,0.0001256,53.2137,303.7791,100.5462,259.5671,0.0026897,0.00042775,0.0,0 STARLINK-3723,1 52138U 22029BC  23069.91075056  .00042775  00000-0  26897-2 0  9996,2 52138  53.2137 303.7791 0001256 100.5462 259.5671 15.08837106 55660,6917.889,95.438,540.623,538.885,0.0
52138.0,STARLINK-3723,PAYLOAD,2023-03-11 05:48:24,15.08828741,0.000128,53.2144,302.2913,90.6805,269.4333,0.00075302,0.00011713,0.0,0 STARLINK-3723,1 52138U 22029BC  23070.24195288  .00011713  00000-0  75302-3 0  9998,2 52138  53.2144 302.2913 0001280  90.6805 269.4333 15.08828741 55711,6917.915,95.438,540.665,538.894,0.0
52138.0,STARLINK-3723,PAYLOAD,2023-03-11 21:42:16,15.08857816,0.0001184,53.2142,299.3187,83.9863,276.1264,0.001921,0.00030432,0.0,0 STARLINK-3723,1 52138U 22029BC  23070.90435299  .00030432  00000-0  19210-2 0  9994,2 52138  53.2142 299.3187 0001184  83.9863 276.1264 15.08857816 55814,6917.826,95.436,540.51,538.872,0.0
52138.0,STARLINK-3723,PAYLOAD,2023-03-12 02:28:25,15.08868499,0.0001171,53.2141,298.426,86.0115,274.1011,0.0022778,0.00036178,0.0,0 STARLINK-3723,1 52138U 22029BC  23071.10307056  .00036178  00000-0  22778-2 0  9992,2 52138  53.2141 298.4260 0001171  86.0115 274.1011 15.08868499 55845,6917.793,95.436,540.468,538.848,0.0
52138.0,STARLINK-3723,PAYLOAD,2023-03-12 12:00:44,15.08853628,0.0001324,53.2142,296.6409,101.2797,258.8344,0.0011184,0.00017563,0.0,0 STARLINK-3723,1 52138U 22029BC  23071.50051171  .00017563  00000-0  11184-2 0  9996,2 52138  53.2142 296.6409 0001324 101.2797 258.8344 15.08853628 55900,6917.839,95.437,540.62,538.788,0.0
52138.0,STARLINK-3723,PAYLOAD,2023-03-12 21:33:02,15.08862773,0.0001351,53.2141,294.8567,93.8811,266.2335,0.0019043,0.00030168,0.0,0 STARLINK-3723,1 52138U 22029BC  23071.89795035  .00030168  00000-0  19043-2 0  9990,2 52138  53.2141 294.8567 0001351  93.8811 266.2335 15.08862773 55967,6917.811,95.436,540.61,538.741,0.0
52138.0,STARLINK-3723,PAYLOAD,2023-03-13 03:54:35,15.08862394,0.0001448,53.2147,293.6672,86.3514,273.7643,0.0013987,0.00022056,0.0,0 STARLINK-3723,1 52138U 22029BC  23072.16290815  .00022056  00000-0  13987-2 0  9995,2 52138  53.2147 293.6672 0001448  86.3514 273.7643 15.08862394 56001,6917.812,95.436,540.679,538.675,0.0
52138.0,STARLINK-3723,PAYLOAD,2023-03-13 11:51:31,15.08832444,0.0001269,53.2145,292.1802,88.9264,271.1874,0.0003538,5.346e-05,0.0,0 STARLINK-3723,1 52138U 22029BC  23072.49411474  .00005346  00000-0  35380-3 0  9992,2 52138  53.2145 292.1802 0001269  88.9264 271.1874 15.08832444 56055,6917.903,95.438,540.646,538.891,0.0
52138.0,STARLINK-3723,PAYLOAD,2023-03-13 15:02:17,15.08831583,0.0001301,53.2145,291.5858,86.1945,273.9196,0.0005501,8.476e-05,0.0,0 STARLINK-3723,1 52138U 22029BC  23072.62659626  .00008476  00000-0  55010-3 0  9999,2 52138  53.2145 291.5858 0001301  86.1945 273.9196 15.08831583 56074,6917.906,95.438,540.671,538.871,0.0
52138.0,STARLINK-3723,PAYLOAD,2023-03-13 21:23:50,15.08836121,0.0001287,53.2145,290.3962,79.5341,280.5797,0.0012826,0.00020181,0.0,0 STARLINK-3723,1 52138U 22029BC  23072.89155764  .00020181  00000-0  12826-2 0  9996,2 52138  53.2145 290.3962 0001287  79.5341 280.5797 15.08836121 56115,6917.892,95.438,540.648,538.867,0.0
52138.0,STARLINK-3723,PAYLOAD,2023-03-14 14:53:04,15.08857422,0.0001282,53.2141,287.1251,77.803,282.3106,0.0013405,0.00021121,0.0,0 STARLINK-3723,1 52138U 22029BC  23073.62019663  .00021121  00000-0  13405-2 0  9994,2 52138  53.2141 287.1251 0001282  77.8030 282.3106 15.08857422 56220,6917.827,95.436,540.579,538.805,0.0
52138.0,STARLINK-3723,PAYLOAD,2023-03-14 21:14:37,15.0887441,0.0001284,53.214,285.9361,75.135,284.9785,0.0017286,0.00027356,0.0,0 STARLINK-3723,1 52138U 22029BC  23073.88515126  .00027356  00000-0  17286-2 0  9994,2 52138  53.2140 285.9361 0001284  75.1350 284.9785 15.08874410 56266,6917.775,95.435,540.528,538.752,0.0
52138.0,STARLINK-3723,PAYLOAD,2023-03-15 13:08:29,15.08804473,0.0001296,53.2146,282.9621,27.5571,332.549,-0.0010663,-0.00017201,0.0,0 STARLINK-3723,1 52138U 22029BC  23074.54756462 -.00017201  00000-0 -10663-2 0  9990,2 52138  53.2146 282.9621 0001296  27.5571 332.5490 15.08804473 56363,6917.989,95.44,540.751,538.957,0.0
52138.0,STARLINK-3723,PAYLOAD,2023-03-15 21:05:25,15.08814504,0.0001598,53.2133,281.4759,70.035,290.0814,0.0019439,0.00030763,0.0,0 STARLINK-3723,1 52138U 22029BC  23074.87877306  .00030763  00000-0  19439-2 0  9993,2 52138  53.2133 281.4759 0001598  70.0350 290.0814 15.08814504 56418,6917.958,95.439,540.929,538.718,0.0
52138.0,STARLINK-3723,PAYLOAD,2023-03-16 00:16:12,15.08832697,0.000121,53.2135,280.8801,89.9688,270.1442,0.0028244,0.0004494,0.0,0 STARLINK-3723,1 52138U 22029BC  23075.01125072  .00044940  00000-0  28244-2 0  9992,2 52138  53.2135 280.8801 0001210  89.9688 270.1442 15.08832697 56436,6917.903,95.438,540.605,538.931,0.0
52138.0,STARLINK-3723,PAYLOAD,2023-03-16 20:56:12,15.08871709,0.0001422,53.2135,277.0152,86.0176,274.0978,0.0015802,0.00024972,0.0,0 STARLINK-3723,1 52138U 22029BC  23075.87236676  .00024972  00000-0  15802-2 0  9998,2 52138  53.2135 277.0152 0001422  86.0176 274.0978 15.08871709 56566,6917.783,95.436,540.632,538.665,0.0
52138.0,STARLINK-3723,PAYLOAD,2023-03-17 12:50:03,15.08854016,0.000172,53.2129,274.0431,84.1946,275.9242,0.00051757,7.962e-05,0.0,0 STARLINK-3723,1 52138U 22029BC  23076.53476231  .00007962  00000-0  51757-3 0  9995,2 52138  53.2129 274.0431 0001720  84.1946 275.9242 15.08854016 56668,6917.838,95.437,540.892,538.513,0.0
52138.0,STARLINK-3723,PAYLOAD,2023-03-17 22:22:22,15.08854051,0.0001703,53.213,272.2575,85.4617,274.657,0.00020679,3.006e-05,0.0,0 STARLINK-3723,1 52138U 22029BC  23076.93219913  .00003006  00000-0  20679-3 0  9995,2 52138  53.2130 272.2575 0001703  85.4617 274.6570 15.08854051 56725,6917.837,95.437,540.881,538.524,0.0
52138.0,STARLINK-3723,PAYLOAD,2023-03-18 12:40:49,15.08851875,0.0001418,53.2128,269.5808,86.3658,273.7496,0.00011761,1.585e-05,0.0,0 STARLINK-3723,1 52138U 22029BC  23077.52835554  .00001585  00000-0  11761-3 0  9998,2 52138  53.2128 269.5808 0001418  86.3658 273.7496 15.08851875 56816,6917.844,95.437,540.69,538.728,0.0
52138.0,STARLINK-3723,PAYLOAD,2023-03-18 19:02:22,15.08856569,0.0001476,53.2131,268.3904,89.5843,270.5319,0.00021893,3.2e-05,0.0,0 STARLINK-3723,1 52138U 22029BC  23077.79331200  .00003200  00000-0  21893-3 0  9999,2 52138  53.2131 268.3904 0001476  89.5843 270.5319 15.08856569 56857,6917.83,95.437,540.716,538.674,0.0
52138.0,STARLINK-3723,PAYLOAD,2023-03-19 06:10:03,15.08863943,0.0001466,53.2134,266.3088,88.2754,271.8406,0.00033517,5.054e-05,0.0,0 STARLINK-3723,1 52138U 22029BC  23078.25698494  .00005054  00000-0  33517-3 0  9997,2 52138  53.2134 266.3088 0001466  88.2754 271.8406 15.08863943 56920,6917.807,95.436,540.686,538.658,0.0
52138.0,STARLINK-3723,PAYLOAD,2023-03-19 18:53:09,15.08845955,0.00014,53.214,263.9307,90.5698,269.5454,4.8498e-05,4.84e-06,0.0,0 STARLINK-3723,1 52138U 22029BC  23078.78691188  .00000484  00000-0  48498-4 0  9995,2 52138  53.2140 263.9307 0001400  90.5698 269.5454 15.08845955 57005,6917.862,95.437,540.696,538.759,0.0
52138.0,STARLINK-3723,PAYLOAD,2023-03-20 12:22:23,15.08839761,0.0001493,53.2138,260.6577,97.1809,262.9353,1.8361e-05,4e-08,0.0,0 STARLINK-3723,1 52138U 22029BC  23079.51555340  .00000004  00000-0  18361-4 0  9990,2 52138  53.2138 260.6577 0001493  97.1809 262.9353 15.08839761 57119,6917.881,95.438,540.779,538.713,0.0
52138.0,STARLINK-3723,PAYLOAD,2023-03-20 18:43:56,15.08846052,0.000138,53.2135,259.4687,88.4652,271.6498,9.6821e-05,1.254e-05,0.0,0 STARLINK-3723,1 52138U 22029BC  23079.78051040  .00001254  00000-0  96821-4 0  9992,2 52138  53.2135 259.4687 0001380  88.4652 271.6498 15.08846052 57150,6917.862,95.437,540.682,538.772,0.0
52138.0,STARLINK-3723,PAYLOAD,2023-03-20 21:54:42,15.08850379,0.0001373,53.214,258.8741,86.2557,273.8592,0.00012958,1.775e-05,0.0,0 STARLINK-3723,1 52138U 22029BC  23079.91298799  .00001775  00000-0  12958-3 0  9997,2 52138  53.2140 258.8741 0001373  86.2557 273.8592 15.08850379 57170,6917.849,95.437,540.663,538.764,0.0
52138.0,STARLINK-3723,PAYLOAD,2023-03-22 04:07:02,15.08835823,0.0001373,53.2141,253.2234,85.607,274.5079,-6.5506e-05,-1.33e-05,0.0,0 STARLINK-3723,1 52138U 22029BC  23081.17155262 -.00001330  00000-0 -65506-4 0  9992,2 52138  53.2141 253.2234 0001373  85.6070 274.5079 15.08835823 57366,6917.893,95.438,540.708,538.808,0.0
